0 METEOR 2-8 DEB
1 36326U 82025L   13281.89577667  .00002230  00000-0  15255-2 0  3336
2 36326 082.5282 135.4177 0032927 100.2137 317.9483 13.99039680451827
0 METEOR 2-8 DEB
1 36326U 82025L   13285.34080128  .00001979  00000-0  13519-2 0  3342
2 36326 082.5276 132.6058 0033008 090.7493 028.5786 13.99052742452305
0 METEOR 2-8 DEB
1 36326U 82025L   13288.34411032  .00002608  00000-0  17848-2 0  3357
2 36326 082.5274 130.1544 0033020 082.4487 034.7275 13.99066514452721
0 METEOR 2-8 DEB
1 36326U 82025L   13290.83536145  .00002449  00000-0  16750-2 0  3362
2 36326 082.5270 128.1207 0033005 075.4261 342.1629 13.99077340453072
0 METEOR 2-8 DEB
1 36326U 82025L   13292.83792944  .00002566  00000-0  17555-2 0  3370
2 36326 082.5270 126.4858 0032868 069.9003 348.2505 13.99085035453354
0 METEOR 2-8 DEB
1 36326U 82025L   13295.28241905  .00002982  00000-0  20412-2 0  3387
2 36326 082.5276 124.4901 0032719 063.0654 060.2822 13.99095683453699
